{"spkid": "50837742", "covariance": {"epoch": "2459326.5", "data": [["9.750242823352018E-15", "-7.221042215054779E-15", "-5.243742132788858E-13", "-3.403696653358972E-12", "2.214950836768455E-12", "9.974559092365101E-13"], ["-7.221042215054779E-15", "5.349936224590415E-15", "3.844314455446989E-13", "2.52725599678332E-12", "-1.645509931207303E-12", "-7.407298297077528E-13"], ["-5.243742132788858E-13", "3.844314455446989E-13", "5.541906183187592E-10", "3.884845266785998E-10", "1.032381360484925E-10", "-1.268685169841712E-10"], ["-3.403696653358972E-12", "2.52725599678332E-12", "3.884845266785998E-10", "5.644241319187775E-9", "-4.873969376830908E-9", "-1.151758775801715E-9"], ["2.214950836768455E-12", "-1.645509931207303E-12", "1.032381360484925E-10", "-4.873969376830908E-9", "4.644074340580612E-9", "9.17107763077157E-10"], ["9.974559092365101E-13", "-7.407298297077528E-13", "-1.268685169841712E-10", "-1.151758775801715E-9", "9.17107763077157E-10", "2.89955094611582E-10"]], "elements": [{"label": "e", "value": ".4111689009003807", "title": "eccentricity", "units": null, "sigma": 9.87433178668411e-08, "name": "e"}, {"units": "au", "value": ".4355002171708774", "title": "perihelion distance", "sigma": 7.31432582306149e-08, "name": "q", "label": "q"}, {"units": "TDB", "title": "time of perihelion passage", "value": "2459320.972900671338", "name": "tp", "sigma": 2.35412535417883e-05, "label": "tp"}, {"label": "node", "title": "longitude of the ascending node", "value": "327.300046530444", "units": "deg", "sigma": 7.51281659511782e-05, "name": "om"}, {"sigma": 6.81474455910169e-05, "name": "w", "units": "deg", "title": "argument of perihelion", "value": "325.0390398493499", "label": "peri"}, {"name": "i", "sigma": 1.70280678472803e-05, "units": "deg", "title": "inclination", "value": "7.074562224551975", "label": "i"}], "labels": ["e", "q", "tp", "node", "peri", "i"]}, "elements": [{"title": "eccentricity", "value": ".4110752775143562", "units": null, "sigma": "9.8928E-8", "name": "e", "label": "e"}, {"units": "au", "title": "semi-major axis", "value": ".7396541683843194", "name": "a", "sigma": "2.5029E-9", "label": "a"}, {"units": "au", "title": "perihelion distance", "value": ".4356006258510849", "sigma": "7.338E-8", "name": "q", "label": "q"}, {"label": "i", "title": "inclination; angle with respect to x-y ecliptic plane", "value": "7.080118863420014", "units": "deg", "sigma": "1.7024E-5", "name": "i"}, {"name": "om", "sigma": "7.4748E-5", "units": "deg", "title": "longitude of the ascending node", "value": "327.2049418205899", "label": "node"}, {"name": "w", "sigma": "6.7812E-5", "title": "argument of perihelion", "value": "325.1298945606019", "units": "deg", "label": "peri"}, {"units": "deg", "title": "mean anomaly", "value": "32.59364534918875", "name": "ma", "sigma": "3.7845E-5", "label": "M"}, {"label": "tp", "sigma": "2.4391E-5", "name": "tp", "title": "time of perihelion passage", "value": "2461179.463575526369", "units": "TDB"}, {"label": "period", "sigma": "1.1794E-6", "name": "per", "units": "d", "title": "sidereal orbital period", "value": "232.3493653248489"}, {"label": "n", "value": "1.549390933333009", "title": "mean motion", "units": "deg/d", "name": "n", "sigma": "7.8644E-9"}, {"label": "Q", "sigma": "3.5317E-9", "name": "ad", "units": "au", "title": "aphelion distance", "value": "1.043707710917554"}], "epoch": "2461200.5"}